FLOCK 4G-17             
1 62681U 25009CA  26191.02703166  .00007639  00000+0  26551-3 0  9999
2 62681  97.3921 272.2791 0003590 236.2552 123.8346 15.30011854140042
FLOCK 4G-33             
1 62685U 25009CE  26189.76183029  .00004325  00000+0  17230-3 0  9994
2 62685  97.3940 269.3877 0004132 242.8969 117.1848 15.25750709 82093
FLOCK 4H-1              
1 66704U 25276AQ  26191.21130324  .00004915  00000+0  22597-3 0  9996
2 66704  97.4172 264.5352 0001518 187.6706 172.4506 15.20814136 33936
FLOCK 4H-2              
1 66705U 25276AR  26191.18588585  .00004357  00000+0  19914-3 0  9998
2 66705  97.4168 264.5570 0001059 158.6525 201.4755 15.21083478 33938
FLOCK 4H-3              
1 66706U 25276AS  26189.98821100  .00003912  00000+0  18376-3 0  9994
2 66706  97.4235 263.3050 0002341 285.9389  74.1588 15.20193199 33739
FLOCK 4H-4              
1 66707U 25276AT  26191.14257329  .00005308  00000+0  24963-3 0  9992
2 66707  97.4219 264.3108 0003034 281.5816  78.5078 15.19995967 33906
FLOCK 4H-5              
1 66708U 25276AU  26190.28261794  .00004749  00000+0  21817-3 0  9991
2 66708  97.4169 263.6419 0000977 128.1897 231.9426 15.20858812 33794
FLOCK 4H-6              
1 66709U 25276AV  26189.66934965  .00004404  00000+0  20436-3 0  9993
2 66709  97.4221 263.0803 0001932 236.3322 123.7730 15.20553045 33697
FLOCK 4H-7              
1 66710U 25276AW  26191.16396389  .00005008  00000+0  23340-3 0  9993
2 66710  97.4180 264.3135 0001002 342.9602  17.1600 15.20338581 33911
FLOCK 4H-8              
1 66711U 25276AX  26191.15521388  .00005374  00000+0  24943-3 0  9998
2 66711  97.4219 264.4512 0001959 302.2817  57.8228 15.20446914 33910
FLOCK 4H-9              
1 66712U 25276AY  26190.77521310  .00004784  00000+0  22050-3 0  9992
2 66712  97.4210 264.1702 0001977 241.2635 118.8402 15.20741710 33868
FLOCK 4H-10             
1 66713U 25276AZ  26189.74471355  .00005144  00000+0  24119-3 0  9990
2 66713  97.4183 262.8729 0002903 290.7514  69.3410 15.20108727 33692
FLOCK 4H-11             
1 66714U 25276BA  26189.78307072  .00009616  00000+0  40914-3 0  9998
2 66714  97.4191 263.4726 0001203 294.5608  65.5504 15.23214490 33739
FLOCK 4H-12             
1 66715U 25276BB  26191.02555571  .00005561  00000+0  25555-3 0  9997
2 66715  97.4185 264.3542 0001373 200.1599 159.9582 15.20772047 34211
FLOCK 4H-13             
1 66716U 25276BC  26190.00959577  .00004510  00000+0  20734-3 0  9996
2 66716  97.4216 263.5238 0001440 149.5850 210.5469 15.20862235 33756
FLOCK 4H-14             
1 66717U 25276BD  26191.15581690  .00005200  00000+0  23538-3 0  9993
2 66717  97.4200 264.6973 0001496 144.6407 215.4929 15.21324845 33186
