{"fetched_at":"2026-07-10T18:07:53.733Z","source":"https://celestrak.org/NORAD/elements/gp.php?GROUP=planet&FORMAT=JSON","constellation":"superdove","records":[{"OBJECT_NAME":"FLOCK 4G-17","OBJECT_ID":"2025-009CA","EPOCH":"2026-07-10T00:38:55.535424","CLASSIFICATION_TYPE":"U","MEAN_MOTION":15.30011854,"ECCENTRICITY":0.00035906,"INCLINATION":97.3921,"RA_OF_ASC_NODE":272.2791,"ARG_OF_PERICENTER":236.2552,"MEAN_ANOMALY":123.8346,"EPHEMERIS_TYPE":0,"NORAD_CAT_ID":62681,"ELEMENT_SET_NO":999,"REV_AT_EPOCH":14004,"BSTAR":0.00026550744,"MEAN_MOTION_DOT":0.00007639,"MEAN_MOTION_DDOT":0},{"OBJECT_NAME":"FLOCK 4G-33","OBJECT_ID":"2025-009CE","EPOCH":"2026-07-08T18:17:02.137056","CLASSIFICATION_TYPE":"U","MEAN_MOTION":15.25750709,"ECCENTRICITY":0.00041326,"INCLINATION":97.394,"RA_OF_ASC_NODE":269.3877,"ARG_OF_PERICENTER":242.8969,"MEAN_ANOMALY":117.1848,"EPHEMERIS_TYPE":0,"NORAD_CAT_ID":62685,"ELEMENT_SET_NO":999,"REV_AT_EPOCH":8209,"BSTAR":0.00017229709,"MEAN_MOTION_DOT":0.00004325,"MEAN_MOTION_DDOT":0},{"OBJECT_NAME":"FLOCK 4H-1","OBJECT_ID":"2025-276AQ","EPOCH":"2026-07-10T05:04:16.599936","CLASSIFICATION_TYPE":"U","MEAN_MOTION":15.20814136,"ECCENTRICITY":0.00015188,"INCLINATION":97.4172,"RA_OF_ASC_NODE":264.5352,"ARG_OF_PERICENTER":187.6706,"MEAN_ANOMALY":172.4506,"EPHEMERIS_TYPE":0,"NORAD_CAT_ID":66704,"ELEMENT_SET_NO":999,"REV_AT_EPOCH":3393,"BSTAR":0.00022596675,"MEAN_MOTION_DOT":0.00004915,"MEAN_MOTION_DDOT":0},{"OBJECT_NAME":"FLOCK 4H-2","OBJECT_ID":"2025-276AR","EPOCH":"2026-07-10T04:27:40.537440","CLASSIFICATION_TYPE":"U","MEAN_MOTION":15.21083478,"ECCENTRICITY":0.00010594,"INCLINATION":97.4168,"RA_OF_ASC_NODE":264.557,"ARG_OF_PERICENTER":158.6525,"MEAN_ANOMALY":201.4755,"EPHEMERIS_TYPE":0,"NORAD_CAT_ID":66705,"ELEMENT_SET_NO":999,"REV_AT_EPOCH":3393,"BSTAR":0.00019913609,"MEAN_MOTION_DOT":0.00004357,"MEAN_MOTION_DDOT":0},{"OBJECT_NAME":"FLOCK 4H-3","OBJECT_ID":"2025-276AS","EPOCH":"2026-07-08T23:43:01.430400","CLASSIFICATION_TYPE":"U","MEAN_MOTION":15.20193199,"ECCENTRICITY":0.00023415,"INCLINATION":97.4235,"RA_OF_ASC_NODE":263.305,"ARG_OF_PERICENTER":285.9389,"MEAN_ANOMALY":74.1588,"EPHEMERIS_TYPE":0,"NORAD_CAT_ID":66706,"ELEMENT_SET_NO":999,"REV_AT_EPOCH":3373,"BSTAR":0.00018376432,"MEAN_MOTION_DOT":0.00003912,"MEAN_MOTION_DDOT":0},{"OBJECT_NAME":"FLOCK 4H-4","OBJECT_ID":"2025-276AT","EPOCH":"2026-07-10T03:25:18.332256","CLASSIFICATION_TYPE":"U","MEAN_MOTION":15.19995967,"ECCENTRICITY":0.0003034,"INCLINATION":97.4219,"RA_OF_ASC_NODE":264.3108,"ARG_OF_PERICENTER":281.5816,"MEAN_ANOMALY":78.5078,"EPHEMERIS_TYPE":0,"NORAD_CAT_ID":66707,"ELEMENT_SET_NO":999,"REV_AT_EPOCH":3390,"BSTAR":0.00024962794,"MEAN_MOTION_DOT":0.00005308,"MEAN_MOTION_DDOT":0},{"OBJECT_NAME":"FLOCK 4H-5","OBJECT_ID":"2025-276AU","EPOCH":"2026-07-09T06:46:58.190016","CLASSIFICATION_TYPE":"U","MEAN_MOTION":15.20858812,"ECCENTRICITY":0.00009777,"INCLINATION":97.4169,"RA_OF_ASC_NODE":263.6419,"ARG_OF_PERICENTER":128.1897,"MEAN_ANOMALY":231.9426,"EPHEMERIS_TYPE":0,"NORAD_CAT_ID":66708,"ELEMENT_SET_NO":999,"REV_AT_EPOCH":3379,"BSTAR":0.00021817239,"MEAN_MOTION_DOT":0.00004749,"MEAN_MOTION_DDOT":0},{"OBJECT_NAME":"FLOCK 4H-6","OBJECT_ID":"2025-276AV","EPOCH":"2026-07-08T16:03:51.809760","CLASSIFICATION_TYPE":"U","MEAN_MOTION":15.20553045,"ECCENTRICITY":0.0001932,"INCLINATION":97.4221,"RA_OF_ASC_NODE":263.0803,"ARG_OF_PERICENTER":236.3322,"MEAN_ANOMALY":123.773,"EPHEMERIS_TYPE":0,"NORAD_CAT_ID":66709,"ELEMENT_SET_NO":999,"REV_AT_EPOCH":3369,"BSTAR":0.00020435962,"MEAN_MOTION_DOT":0.00004404,"MEAN_MOTION_DDOT":0},{"OBJECT_NAME":"FLOCK 4H-7","OBJECT_ID":"2025-276AW","EPOCH":"2026-07-10T03:56:06.480096","CLASSIFICATION_TYPE":"U","MEAN_MOTION":15.20338581,"ECCENTRICITY":0.00010029,"INCLINATION":97.418,"RA_OF_ASC_NODE":264.3135,"ARG_OF_PERICENTER":342.9602,"MEAN_ANOMALY":17.16,"EPHEMERIS_TYPE":0,"NORAD_CAT_ID":66710,"ELEMENT_SET_NO":999,"REV_AT_EPOCH":3391,"BSTAR":0.00023339705,"MEAN_MOTION_DOT":0.00005008,"MEAN_MOTION_DDOT":0},{"OBJECT_NAME":"FLOCK 4H-8","OBJECT_ID":"2025-276AX","EPOCH":"2026-07-10T03:43:30.479232","CLASSIFICATION_TYPE":"U","MEAN_MOTION":15.20446914,"ECCENTRICITY":0.00019596,"INCLINATION":97.4219,"RA_OF_ASC_NODE":264.4512,"ARG_OF_PERICENTER":302.2817,"MEAN_ANOMALY":57.8228,"EPHEMERIS_TYPE":0,"NORAD_CAT_ID":66711,"ELEMENT_SET_NO":999,"REV_AT_EPOCH":3391,"BSTAR":0.00024942579,"MEAN_MOTION_DOT":0.00005374,"MEAN_MOTION_DDOT":0},{"OBJECT_NAME":"FLOCK 4H-9","OBJECT_ID":"2025-276AY","EPOCH":"2026-07-09T18:36:18.411840","CLASSIFICATION_TYPE":"U","MEAN_MOTION":15.2074171,"ECCENTRICITY":0.00019776,"INCLINATION":97.421,"RA_OF_ASC_NODE":264.1702,"ARG_OF_PERICENTER":241.2635,"MEAN_ANOMALY":118.8402,"EPHEMERIS_TYPE":0,"NORAD_CAT_ID":66712,"ELEMENT_SET_NO":999,"REV_AT_EPOCH":3386,"BSTAR":0.00022049671,"MEAN_MOTION_DOT":0.00004784,"MEAN_MOTION_DDOT":0},{"OBJECT_NAME":"FLOCK 4H-10","OBJECT_ID":"2025-276AZ","EPOCH":"2026-07-08T17:52:23.250720","CLASSIFICATION_TYPE":"U","MEAN_MOTION":15.20108727,"ECCENTRICITY":0.0002903,"INCLINATION":97.4183,"RA_OF_ASC_NODE":262.8729,"ARG_OF_PERICENTER":290.7514,"MEAN_ANOMALY":69.341,"EPHEMERIS_TYPE":0,"NORAD_CAT_ID":66713,"ELEMENT_SET_NO":999,"REV_AT_EPOCH":3369,"BSTAR":0.00024119162,"MEAN_MOTION_DOT":0.00005144,"MEAN_MOTION_DDOT":0},{"OBJECT_NAME":"FLOCK 4H-11","OBJECT_ID":"2025-276BA","EPOCH":"2026-07-08T18:47:37.310208","CLASSIFICATION_TYPE":"U","MEAN_MOTION":15.2321449,"ECCENTRICITY":0.00012034,"INCLINATION":97.4191,"RA_OF_ASC_NODE":263.4726,"ARG_OF_PERICENTER":294.5608,"MEAN_ANOMALY":65.5504,"EPHEMERIS_TYPE":0,"NORAD_CAT_ID":66714,"ELEMENT_SET_NO":999,"REV_AT_EPOCH":3373,"BSTAR":0.00040914423,"MEAN_MOTION_DOT":0.00009616,"MEAN_MOTION_DDOT":0},{"OBJECT_NAME":"FLOCK 4H-12","OBJECT_ID":"2025-276BB","EPOCH":"2026-07-10T00:36:48.013344","CLASSIFICATION_TYPE":"U","MEAN_MOTION":15.20772047,"ECCENTRICITY":0.00013735,"INCLINATION":97.4185,"RA_OF_ASC_NODE":264.3542,"ARG_OF_PERICENTER":200.1599,"MEAN_ANOMALY":159.9582,"EPHEMERIS_TYPE":0,"NORAD_CAT_ID":66715,"ELEMENT_SET_NO":999,"REV_AT_EPOCH":3421,"BSTAR":0.00025555341,"MEAN_MOTION_DOT":0.00005561,"MEAN_MOTION_DDOT":0},{"OBJECT_NAME":"FLOCK 4H-13","OBJECT_ID":"2025-276BC","EPOCH":"2026-07-09T00:13:49.074528","CLASSIFICATION_TYPE":"U","MEAN_MOTION":15.20862235,"ECCENTRICITY":0.00014409,"INCLINATION":97.4216,"RA_OF_ASC_NODE":263.5238,"ARG_OF_PERICENTER":149.585,"MEAN_ANOMALY":210.5469,"EPHEMERIS_TYPE":0,"NORAD_CAT_ID":66716,"ELEMENT_SET_NO":999,"REV_AT_EPOCH":3375,"BSTAR":0.00020734367,"MEAN_MOTION_DOT":0.0000451,"MEAN_MOTION_DDOT":0},{"OBJECT_NAME":"FLOCK 4H-14","OBJECT_ID":"2025-276BD","EPOCH":"2026-07-10T03:44:22.580160","CLASSIFICATION_TYPE":"U","MEAN_MOTION":15.21324845,"ECCENTRICITY":0.00014961,"INCLINATION":97.42,"RA_OF_ASC_NODE":264.6973,"ARG_OF_PERICENTER":144.6407,"MEAN_ANOMALY":215.4929,"EPHEMERIS_TYPE":0,"NORAD_CAT_ID":66717,"ELEMENT_SET_NO":999,"REV_AT_EPOCH":3318,"BSTAR":0.00023538485,"MEAN_MOTION_DOT":0.000052,"MEAN_MOTION_DDOT":0}]}
